NORAD_CAT_ID,OBJECT_NAME,OBJECT_TYPE,EPOCH,MEAN_MOTION,ECCENTRICITY,INCLINATION,RA_OF_ASC_NODE,ARG_OF_PERICENTER,MEAN_ANOMALY,BSTAR,MEAN_MOTION_DOT,MEAN_MOTION_DDOT,TLE_LINE0,TLE_LINE1,TLE_LINE2,SEMIMAJOR_AXIS,PERIOD,APOGEE,PERIGEE,DECAYED
49410.0,STARLINK-3147,PAYLOAD,2024-04-29 03:55:13,15.0885329,0.00015,53.2183,39.6384,80.9779,279.1383,0.00014017,1.944e-05,0.0,0 STARLINK-3147,1 49410U 21104C   24120.16334905  .00001944  00000-0  14017-3 0  9990,2 49410  53.2183  39.6384 0001500  80.9779 279.1383 15.08853290137130,6917.84,95.437,540.742,538.667,0.0
49410.0,STARLINK-3147,PAYLOAD,2024-04-29 11:52:09,15.08839134,0.0001502,53.218,38.152,77.7633,282.3527,8.3872e-05,1.047e-05,0.0,0 STARLINK-3147,1 49410U 21104C   24120.49455623  .00001047  00000-0  83872-4 0  9997,2 49410  53.2180  38.1520 0001502  77.7633 282.3527 15.08839134136099,6917.883,95.438,540.787,538.709,0.0
49410.0,STARLINK-3147,PAYLOAD,2024-04-29 22:59:51,15.08837232,0.0001809,53.2189,36.0699,77.0913,283.0281,0.00023797,3.501e-05,0.0,0 STARLINK-3147,1 49410U 21104C   24120.95824004  .00003501  00000-0  23797-3 0  9997,2 49410  53.2189  36.0699 0001809  77.0913 283.0281 15.08837232136166,6917.889,95.438,541.005,538.502,0.0
49410.0,STARLINK-3147,PAYLOAD,2024-04-30 11:42:56,15.08845195,0.0001475,53.2176,33.6906,82.5346,277.5813,0.00019884,2.878e-05,0.0,0 STARLINK-3147,1 49410U 21104C   24121.48815578  .00002878  00000-0  19884-3 0  9990,2 49410  53.2176  33.6906 0001475  82.5346 277.5813 15.08845195136241,6917.865,95.437,540.75,538.709,0.0
49410.0,STARLINK-3147,PAYLOAD,2024-04-30 22:50:38,15.0884613,0.000166,53.2188,31.6089,86.4129,273.7053,0.00014188,1.971e-05,0.0,0 STARLINK-3147,1 49410U 21104C   24121.95183542  .00001971  00000-0  14188-3 0  9996,2 49410  53.2188  31.6089 0001660  86.4129 273.7053 15.08846130136314,6917.862,95.437,540.875,538.578,0.0
49410.0,STARLINK-3147,PAYLOAD,2024-05-01 00:26:01,15.08847924,0.0001485,53.2185,31.3103,92.3431,267.7731,0.00018742,2.697e-05,0.0,0 STARLINK-3147,1 49410U 21104C   24122.01807317  .00002697  00000-0  18742-3 0  9993,2 49410  53.2185  31.3103 0001485  92.3431 267.7731 15.08847924137412,6917.856,95.437,540.748,538.694,0.0
49410.0,STARLINK-3147,PAYLOAD,2024-05-01 17:55:16,15.08841453,0.0001377,53.2166,28.0424,83.3283,276.7865,0.00013499,1.861e-05,0.0,0 STARLINK-3147,1 49410U 21104C   24122.74671630  .00001861  00000-0  13499-3 0  9996,2 49410  53.2166  28.0424 0001377  83.3283 276.7865 15.08841453137526,6917.876,95.437,540.694,538.788,0.0
49410.0,STARLINK-3147,PAYLOAD,2024-05-02 00:16:48,15.0884475,0.0001452,53.2178,26.8508,91.7813,268.3345,8.358e-05,1.043e-05,0.0,0 STARLINK-3147,1 49410U 21104C   24123.01167409  .00001043  00000-0  83580-4 0  9992,2 49410  53.2178  26.8508 0001452  91.7813 268.3345 15.08844750136470,6917.866,95.437,540.735,538.726,0.0
49410.0,STARLINK-3147,PAYLOAD,2024-05-02 20:56:49,15.08837622,0.0001231,53.2172,22.9895,86.8395,273.2738,8.5393e-05,1.071e-05,0.0,0 STARLINK-3147,1 49410U 21104C   24123.87279886  .00001071  00000-0  85393-4 0  9994,2 49410  53.2172  22.9895 0001231  86.8395 273.2738 15.08837622137691,6917.888,95.438,540.604,538.901,0.0
49410.0,STARLINK-3147,PAYLOAD,2024-05-03 03:18:21,15.088502,0.0001208,53.2168,21.7968,89.0861,271.027,0.00025704,3.806e-05,0.0,0 STARLINK-3147,1 49410U 21104C   24124.13775459  .00003806  00000-0  25704-3 0  9998,2 49410  53.2168  21.7968 0001208  89.0861 271.0270 15.08850200137730,6917.849,95.437,540.55,538.879,0.0
49410.0,STARLINK-3147,PAYLOAD,2024-05-03 09:39:54,15.08842602,0.000127,53.2167,20.6054,80.6497,279.4638,0.00011797,1.59e-05,0.0,0 STARLINK-3147,1 49410U 21104C   24124.40271535  .00001590  00000-0  11797-3 0  9999,2 49410  53.2167  20.6054 0001270  80.6497 279.4638 15.08842602136684,6917.872,95.437,540.616,538.859,0.0
49410.0,STARLINK-3147,PAYLOAD,2024-05-03 20:47:37,15.08820959,0.0001564,53.2172,18.5317,94.5587,265.5584,-0.00015634,-2.774e-05,0.0,0 STARLINK-3147,1 49410U 21104C   24124.86641008 -.00002774  00000-0 -15634-3 0  9996,2 49410  53.2172  18.5317 0001564  94.5587 265.5584 15.08820959137844,6917.939,95.439,540.886,538.722,0.0
49410.0,STARLINK-3147,PAYLOAD,2024-05-03 22:23:01,15.08820599,0.0001454,53.2191,18.2352,98.5964,261.5193,-5.7464e-05,-1.202e-05,0.0,0 STARLINK-3147,1 49410U 21104C   24124.93265688 -.00001202  00000-0 -57464-4 0  9993,2 49410  53.2191  18.2352 0001454  98.5964 261.5193 15.08820599136764,6917.94,95.439,540.811,538.799,0.0
49410.0,STARLINK-3147,PAYLOAD,2024-05-04 20:38:24,15.08844138,0.0001222,53.218,14.0677,87.5005,272.6127,0.00013935,1.931e-05,0.0,0 STARLINK-3147,1 49410U 21104C   24125.86000444  .00001931  00000-0  13935-3 0  9994,2 49410  53.2180  14.0677 0001222  87.5005 272.6127 15.08844138137994,6917.868,95.437,540.578,538.887,0.0
49410.0,STARLINK-3147,PAYLOAD,2024-05-04 23:49:10,15.08847704,0.0001232,53.2176,13.4739,86.8001,273.3132,0.00026383,3.914e-05,0.0,0 STARLINK-3147,1 49410U 21104C   24125.99248448  .00003914  00000-0  26383-3 0  9990,2 49410  53.2176  13.4739 0001232  86.8001 273.3132 15.08847704136928,6917.857,95.437,540.574,538.87,0.0
49410.0,STARLINK-3147,PAYLOAD,2024-05-05 22:04:34,15.08859354,0.0001198,53.2177,9.3106,77.4314,282.6812,0.00055958,8.634e-05,0.0,0 STARLINK-3147,1 49410U 21104C   24126.91984128  .00008634  00000-0  55958-3 0  9999,2 49410  53.2177   9.3106 0001198  77.4314 282.6812 15.08859354137063,6917.821,95.436,540.515,538.857,0.0
49410.0,STARLINK-3147,PAYLOAD,2024-05-06 01:15:20,15.08874633,0.0001168,53.2171,8.7164,83.3907,276.7218,0.0008648,0.00013515,0.0,0 STARLINK-3147,1 49410U 21104C   24127.05231595  .00013515  00000-0  86480-3 0  9996,2 49410  53.2171   8.7164 0001168  83.3907 276.7218 15.08874633138179,6917.775,95.435,540.448,538.832,0.0
49410.0,STARLINK-3147,PAYLOAD,2024-05-06 09:12:15,15.08863036,0.0001373,53.2166,7.2294,83.3109,276.804,0.00052675,8.11e-05,0.0,0 STARLINK-3147,1 49410U 21104C   24127.38351576  .00008110  00000-0  52675-3 0  9998,2 49410  53.2166   7.2294 0001373  83.3109 276.8040 15.08863036138228,6917.81,95.436,540.625,538.725,0.0
49410.0,STARLINK-3147,PAYLOAD,2024-05-06 21:55:21,15.08835059,0.000133,53.2166,4.8519,89.6195,270.495,-0.00012911,-2.342e-05,0.0,0 STARLINK-3147,1 49410U 21104C   24127.91344084 -.00002342  00000-0 -12911-3 0  9995,2 49410  53.2166   4.8519 0001330  89.6195 270.4950 15.08835059138301,6917.895,95.438,540.681,538.84,0.0
49410.0,STARLINK-3147,PAYLOAD,2024-05-07 09:03:03,15.0882815,0.0001142,53.2169,2.7685,92.0798,268.0325,0.00042739,6.518e-05,0.0,0 STARLINK-3147,1 49410U 21104C   24128.37712780  .00006518  00000-0  42739-3 0  9996,2 49410  53.2169   2.7685 0001142  92.0798 268.0325 15.08828150137282,6917.917,95.438,540.572,538.992,0.0
49410.0,STARLINK-3147,PAYLOAD,2024-05-07 21:46:09,15.08839798,0.0001018,53.2171,0.3871,96.693,263.4178,0.00063369,9.812e-05,0.0,0 STARLINK-3147,1 49410U 21104C   24128.90704880  .00009812  00000-0  63369-3 0  9999,2 49410  53.2171   0.3871 0001018  96.6930 263.4178 15.08839798137360,6917.881,95.438,540.45,539.042,0.0
49410.0,STARLINK-3147,PAYLOAD,2024-05-08 08:53:50,15.08849892,0.0001021,53.2172,358.3059,93.6166,266.4943,0.00075544,0.00011759,0.0,0 STARLINK-3147,1 49410U 21104C   24129.37072795  .00011759  00000-0  75544-3 0  9995,2 49410  53.2172 358.3059 0001021  93.6166 266.4943 15.08849892138525,6917.85,95.437,540.421,539.009,0.0
49410.0,STARLINK-3147,PAYLOAD,2024-05-08 21:36:55,15.08856438,0.0001049,53.2171,355.9274,90.2391,269.8721,0.00060227,9.314e-05,0.0,0 STARLINK-3147,1 49410U 21104C   24129.90064399  .00009314  00000-0  60227-3 0  9991,2 49410  53.2171 355.9274 0001049  90.2391 269.8721 15.08856438137512,6917.83,95.437,540.421,538.969,0.0
49410.0,STARLINK-3147,PAYLOAD,2024-05-09 19:52:19,15.0885502,0.0001158,53.2181,351.7652,104.7463,255.3658,0.00038345,5.822e-05,0.0,0 STARLINK-3147,1 49410U 21104C   24130.82800069  .00005822  00000-0  38345-3 0  9992,2 49410  53.2181 351.7652 0001158 104.7463 255.3658 15.08855020138740,6917.834,95.437,540.501,538.898,0.0
49410.0,STARLINK-3147,PAYLOAD,2024-05-09 21:27:42,15.08850818,0.000112,53.2179,351.4682,77.0414,283.0703,0.00029032,4.337e-05,0.0,0 STARLINK-3147,1 49410U 21104C   24130.89424210  .00004337  00000-0  29032-3 0  9992,2 49410  53.2179 351.4682 0001120  77.0414 283.0703 15.08850818137663,6917.847,95.437,540.487,538.938,0.0
49410.0,STARLINK-3147,PAYLOAD,2024-05-10 00:38:28,15.08854379,0.0001061,53.2176,350.8727,75.3785,284.7325,0.00033083,4.983e-05,0.0,0 STARLINK-3147,1 49410U 21104C   24131.02672092  .00004983  00000-0  33083-3 0  9999,2 49410  53.2176 350.8727 0001061  75.3785 284.7325 15.08854379137685,6917.836,95.437,540.435,538.967,0.0
49410.0,STARLINK-3147,PAYLOAD,2024-05-10 21:18:29,15.08856872,0.0001082,53.2184,347.005,99.8105,260.3009,0.00031917,4.798e-05,0.0,0 STARLINK-3147,1 49410U 21104C   24131.88783765  .00004798  00000-0  31917-3 0  9991,2 49410  53.2184 347.0050 0001082  99.8105 260.3009 15.08856872138906,6917.829,95.436,540.442,538.945,0.0
49410.0,STARLINK-3147,PAYLOAD,2024-05-11 21:09:16,15.08850629,0.0001146,53.2182,342.5435,81.8413,278.2709,0.00017923,2.567e-05,0.0,0 STARLINK-3147,1 49410U 21104C   24132.88143600  .00002567  00000-0  17923-3 0  9993,2 49410  53.2182 342.5435 0001146  81.8413 278.2709 15.08850629139051,6917.848,95.437,540.506,538.92,0.0
49410.0,STARLINK-3147,PAYLOAD,2024-05-12 06:41:35,15.08833827,9.45e-05,53.2179,340.7599,77.3124,282.7974,-5.597e-05,-1.178e-05,0.0,0 STARLINK-3147,1 49410U 21104C   24133.27888282 -.00001178  00000-0 -55970-4 0  9993,2 49410  53.2179 340.7599 0000945  77.3124 282.7974 15.08833827139115,6917.899,95.438,540.418,539.111,0.0
49410.0,STARLINK-3147,PAYLOAD,2024-05-12 21:00:05,15.08811579,0.0001466,53.2193,338.0841,77.9959,282.1198,-0.00039625,-6.584e-05,0.0,0 STARLINK-3147,1 49410U 21104C   24133.87506416 -.00006584  00000-0 -39625-3 0  9999,2 49410  53.2193 338.0841 0001466  77.9959 282.1198 15.08811579139204,6917.967,95.439,540.846,538.818,0.0
